LEMUR-2-ROUNDTRIPPER    
1 62711U 25009DG  26176.21136731  .00010108  00000+0  73702-3 0  9990
2 62711  97.7250 258.8797 0005672 111.1214 249.0618 15.03909454 78832
LEMUR-2-MYNAMEISJEFF    
1 62712U 25009DH  26175.21172882  .00006945  00000+0  50837-3 0  9995
2 62712  97.7293 258.2670 0004056 136.6635 223.4910 15.03888977 78688
LEMUR-2-LEIA-PHILIP     
1 63246U 25052AN  26174.95291441  .00000776  00000+0  71815-4 0  9995
2 63246  97.6825  66.7900 0003349 188.0089 172.1080 14.97328919 69682
LEMUR-2-LIA-MARTIN      
1 63248U 25052AQ  26174.95572482  .00003479  00000+0  30073-3 0  9997
2 63248  97.6878  67.2775 0003462 147.0255 213.1184 14.97842877 69690
LEMUR-2-DELOITTE-1      
1 63259U 25052BB  26175.93518767  .00003356  00000+0  29170-3 0  9994
2 63259  97.6928  68.5720 0003291  80.1242 280.0352 14.97655753 69858
LEMUR-2-EMERSONROSE     
1 63261U 25052BD  26176.16975041  .00004378  00000+0  36486-3 0  9998
2 63261  97.6878  69.3754 0001937  76.8592 283.2847 14.99131201 69938
LEMUR-2-MARACHE-FRAN    
1 63262U 25052BE  26175.20577977  .00003846  00000+0  31271-3 0  9995
2 63262  97.6931  68.7567 0004704 355.1495   4.9682 15.00154270 69810
LEMUR-2-THEFALCONER     
1 63264U 25052BG  26176.16318257  .00003857  00000+0  33639-3 0  9999
2 63264  97.6849  68.4076 0001694  15.5300 344.5974 14.97431914 69881
LEMUR-2-UNTITLED-SC     
1 63351U 25061A   26175.16290778  .00003002  00000+0  17082-3 0  9998
2 63351  97.5637 150.4737 0017157 238.1119 121.8443 15.13515527 68642
LEMUR-2-ESPERANZA       
1 63352U 25061B   26174.87518465  .00003141  00000+0  17814-3 0  9999
2 63352  97.5644 150.2831 0016770 238.3402 121.6194 15.13605396 68602
LEMUR-2-KREMPEL-BRO2    
1 63353U 25061C   26175.89158096  .00003623  00000+0  20227-3 0  9990
2 63353  97.5689 151.8356 0017886 226.5674 133.4070 15.14051235 68770
LEMUR-2-THERMORAPTOR    
1 63354U 25061D   26176.20367536  .00004022  00000+0  22362-3 0  9994
2 63354  97.5694 152.2230 0017666 224.2419 135.7401 15.14135220 68827
LEMUR-2-NEUROSPICY      
1 63355U 25061E   26175.91041037  .00003327  00000+0  18522-3 0  9997
2 63355  97.5622 151.5515 0015394 228.6975 131.2932 15.14248167 68788
LEMUR-2-TILLINFINITY    
1 63356U 25061F   26176.20692029  .00004052  00000+0  22091-3 0  9996
2 63356  97.5606 152.1424 0016936 215.0328 144.9791 15.14835923 68856
LEMUR-2-KREMPEL-BRO1    
1 63357U 25061G   26176.18141840  .00003585  00000+0  19691-3 0  9996
2 63357  97.5608 152.0309 0017544 216.6088 143.3946 15.14641699 68845
LEMUR-2-LANGER2SPACE    
1 63358U 25061H   26174.68973493  .00002963  00000+0  16498-3 0  9998
2 63358  97.5614 150.3594 0015230 231.4454 128.5414 15.14324782 68602
LEMUR-2-BALTO           
1 63395U 25052BH  26175.19051158  .00005229  00000+0  42328-3 0  9990
2 63395  97.6916  68.7172 0006740  39.4690 320.7024 15.00154475 69819
LEMUR-2-KRISH           
1 64561U 25135AK  26174.76194573  .00003067  00000+0  27679-3 0  9999
2 64561  97.7746 289.5933 0001337  96.2245 263.9128 14.96255561 54908
LEMUR-2-HUBBLE-4        
1 64565U 25135AP  26174.90453204  .00001025  00000+0  10350-3 0  9998
2 64565  97.7704 288.7289 0000908 250.8554 109.2568 14.93213733 54873
LEMUR-2-SEJONG-2        
1 64586U 25135BL  26176.19371785  .00005210  00000+0  46058-3 0  9991
2 64586  97.7687 291.1593 0002968 307.3654  52.7297 14.96753315 55149
LEMUR-2-HUBBLE-5        
1 64840U 25135BT  26176.12679769  .00001870  00000+0  18006-3 0  9990
2 64840  97.7722 290.5835 0004400 323.9622  36.1300 14.94157768 55099
LEMUR-2-KARENDARRELL    
1 64841U 25135BU  26175.05514209  .00007056  00000+0  56854-3 0  9994
2 64841  97.7676 291.2515 0010282 176.0148 184.1159 15.00194717 55040
LEMUR-2-LUCILLE-ROSE    
1 65403U 25135BV  26174.56178287  .00004901  00000+0  39614-3 0  9997
2 65403  97.7751 290.7858 0011936 259.1302 100.8578 15.00216421 49595
LEMUR-2-AFFIE-WAUWIE    
1 66295U 25248C   26174.13886335  .00017919  00000+0  66599-3 0  9990
2 66295  45.3929  82.7389 0007313 125.1240 235.0336 15.27345678 35501
LEMUR-2-DEANANDMAEVE    
1 66678U 25276N   26175.16219230  .00005755  00000+0  27181-3 0  9993
2 66678  97.4212 248.5221 0005007 349.3175  10.7953 15.19804452 31477
LEMUR-2-STAS-GORBUK     
1 66686U 25276W   26176.16616464  .00006199  00000+0  29549-3 0  9996
2 66686  97.4246 249.5637 0004259 346.6217  13.4904 15.19455571 31627
LEMUR-2-TEODOR          
1 66768U 25276DG  26176.14119977  .00006553  00000+0  29745-3 0  9994
2 66768  97.4151 249.7856 0002347 108.7549 251.3942 15.21127932 31657
LEMUR-2-LAILA           
1 66776U 25276DQ  26176.17972934  .00006327  00000+0  28546-3 0  9993
2 66776  97.4174 249.9492 0002635 124.2018 235.9468 15.21351203 31665
LEMUR-2-CELIJO-SB-PK    
1 66781U 25276DW  26176.17490176  .00007231  00000+0  58444-3 0  9997
2 66781  97.5235 246.6902 0008248 113.4299 246.7793 15.00063981 23827
LEMUR-2-FINNIAN         
1 66782U 25276DX  26175.14942811  .00004572  00000+0  36763-3 0  9997
2 66782  97.5309 245.9209 0008701  68.8843 291.3311 15.00446823 21048
